NORAD_CAT_ID,OBJECT_NAME,OBJECT_TYPE,EPOCH,MEAN_MOTION,ECCENTRICITY,INCLINATION,RA_OF_ASC_NODE,ARG_OF_PERICENTER,MEAN_ANOMALY,BSTAR,MEAN_MOTION_DOT,MEAN_MOTION_DDOT,TLE_LINE0,TLE_LINE1,TLE_LINE2,SEMIMAJOR_AXIS,PERIOD,APOGEE,PERIGEE,DECAYED
53711.0,STARLINK-4627,PAYLOAD,2023-05-03 13:47:06,15.08833173,6.52e-05,53.2162,242.6703,100.186,259.9205,-4.0275e-06,-3.52e-06,0.0,0 STARLINK-4627,1 53711U 22107M   23123.57437904 -.00000352  00000-0 -40275-5 0  9994,2 53711  53.2162 242.6703 0000652 100.1860 259.9205 15.08833173 37305,6917.901,95.438,540.217,539.315,0.0
53711.0,STARLINK-4627,PAYLOAD,2023-05-03 20:08:38,15.08843221,5.76e-05,53.2164,241.4858,110.4402,249.6652,0.00015234,2.138e-05,0.0,0 STARLINK-4627,1 53711U 22107M   23123.83933513  .00002138  00000-0  15234-3 0  9997,2 53711  53.2164 241.4858 0000576 110.4402 249.6652 15.08843221 37347,6917.871,95.437,540.134,539.337,0.0
53711.0,STARLINK-4627,PAYLOAD,2023-05-04 13:37:53,15.08840486,4.35e-05,53.2154,238.2115,123.6213,236.482,4.9699e-05,5.04e-06,0.0,0 STARLINK-4627,1 53711U 22107M   23124.56797551  .00000504  00000-0  49699-4 0  9996,2 53711  53.2154 238.2115 0000435 123.6213 236.4820 15.08840486 37459,6917.879,95.438,540.045,539.443,0.0
53711.0,STARLINK-4627,PAYLOAD,2023-05-04 19:59:25,15.08853041,3.54e-05,53.2149,237.0219,122.4591,237.6435,0.00032842,4.945e-05,0.0,0 STARLINK-4627,1 53711U 22107M   23124.83293039  .00004945  00000-0  32842-3 0  9992,2 53711  53.2149 237.0219 0000354 122.4591 237.6435 15.08853041 37491,6917.841,95.437,539.95,539.461,0.0
53711.0,STARLINK-4627,PAYLOAD,2023-05-05 07:07:08,15.08828206,2.14e-05,53.2165,234.9399,100.901,259.2007,-2.5195e-05,-6.88e-06,0.0,0 STARLINK-4627,1 53711U 22107M   23125.29662301 -.00000688  00000-0 -25195-4 0  9991,2 53711  53.2165 234.9399 0000214 100.9010 259.2007 15.08828206 37126,6917.916,95.438,539.929,539.633,0.0
53711.0,STARLINK-4627,PAYLOAD,2023-05-05 16:39:26,15.08846851,5.1e-05,53.2145,233.158,71.6844,288.4204,0.00055807,8.607e-05,0.0,0 STARLINK-4627,1 53711U 22107M   23125.69405834  .00008607  00000-0  55807-3 0  9990,2 53711  53.2145 233.1580 0000510  71.6844 288.4204 15.08846851 37180,6917.859,95.437,540.077,539.372,0.0
53711.0,STARLINK-4627,PAYLOAD,2023-05-06 06:57:55,15.08845412,0.0001062,53.2147,230.4843,53.6151,306.4939,0.00055687,8.587e-05,0.0,0 STARLINK-4627,1 53711U 22107M   23126.29022211  .00008587  00000-0  55687-3 0  9994,2 53711  53.2147 230.4843 0001062  53.6151 306.4939 15.08845412 37276,6917.864,95.437,540.464,538.994,0.0
53711.0,STARLINK-4627,PAYLOAD,2023-05-06 13:19:27,15.08852695,9.76e-05,53.2149,229.2946,56.6464,303.4622,0.00062576,9.689e-05,0.0,0 STARLINK-4627,1 53711U 22107M   23126.55518007  .00009689  00000-0  62576-3 0  9995,2 53711  53.2149 229.2946 0000976  56.6464 303.4622 15.08852695 37751,6917.842,95.437,540.382,539.031,0.0
53711.0,STARLINK-4627,PAYLOAD,2023-05-07 11:34:51,15.08836483,6.51e-05,53.2138,225.1291,122.5663,237.5392,0.00011521,1.546e-05,0.0,0 STARLINK-4627,1 53711U 22107M   23127.48254439  .00001546  00000-0  11521-3 0  9992,2 53711  53.2138 225.1291 0000651 122.5663 237.5392 15.08836483 37456,6917.891,95.438,540.206,539.306,0.0
53711.0,STARLINK-4627,PAYLOAD,2023-05-08 13:01:01,15.08856691,4.94e-05,53.2145,220.3715,82.1322,277.9726,0.00075114,0.00011692,0.0,0 STARLINK-4627,1 53711U 22107M   23128.54238309  .00011692  00000-0  75114-3 0  9999,2 53711  53.2145 220.3715 0000494  82.1322 277.9726 15.08856691 37610,6917.829,95.436,540.036,539.353,0.0
53711.0,STARLINK-4627,PAYLOAD,2023-05-08 16:11:47,15.08864996,4.98e-05,53.2147,219.7765,84.3321,275.7728,0.00091881,0.00014375,0.0,0 STARLINK-4627,1 53711U 22107M   23128.67486014  .00014375  00000-0  91881-3 0  9991,2 53711  53.2147 219.7765 0000498  84.3321 275.7728 15.08864996 38072,6917.804,95.436,540.013,539.324,0.0
53711.0,STARLINK-4627,PAYLOAD,2023-05-09 11:16:25,15.08859992,4.81e-05,53.2143,216.2084,102.5554,257.5492,0.0006599,0.00010236,0.0,0 STARLINK-4627,1 53711U 22107M   23129.46973854  .00010236  00000-0  65990-3 0  9996,2 53711  53.2143 216.2084 0000481 102.5554 257.5492 15.08859992 38196,6917.819,95.436,540.017,539.352,0.0
53711.0,STARLINK-4627,PAYLOAD,2023-05-10 11:07:13,15.08835504,4.64e-05,53.2143,211.7487,77.1204,282.984,0.00076021,0.0001183,0.0,0 STARLINK-4627,1 53711U 22107M   23130.46334497  .00011830  00000-0  76021-3 0  9990,2 53711  53.2143 211.7487 0000464  77.1204 282.9840 15.08835504 38342,6917.894,95.438,540.08,539.438,0.0
53711.0,STARLINK-4627,PAYLOAD,2023-05-10 14:17:59,15.08841344,5.28e-05,53.2145,211.1543,87.34,272.7653,0.001085,0.00017023,0.0,0 STARLINK-4627,1 53711U 22107M   23130.59582529  .00017023  00000-0  10850-2 0  9992,2 53711  53.2145 211.1543 0000528  87.3400 272.7653 15.08841344 38363,6917.876,95.437,540.107,539.376,0.0
53711.0,STARLINK-4627,PAYLOAD,2023-05-11 10:58:00,15.08848708,5.97e-05,53.2139,207.2885,66.4671,293.6384,0.00065702,0.00010187,0.0,0 STARLINK-4627,1 53711U 22107M   23131.45694526  .00010187  00000-0  65702-3 0  9990,2 53711  53.2139 207.2885 0000597  66.4671 293.6384 15.08848708 38493,6917.854,95.437,540.132,539.306,0.0
53711.0,STARLINK-4627,PAYLOAD,2023-05-11 12:33:23,15.08851323,5.95e-05,53.2139,206.9912,65.6603,294.4452,0.00070776,0.00010998,0.0,0 STARLINK-4627,1 53711U 22107M   23131.52318456  .00010998  00000-0  70776-3 0  9990,2 53711  53.2139 206.9912 0000595  65.6603 294.4452 15.08851323 38508,6917.846,95.437,540.122,539.299,0.0
53711.0,STARLINK-4627,PAYLOAD,2023-05-11 23:41:05,15.08845469,6.26e-05,53.2136,204.9098,64.0607,296.045,0.00026703,3.965e-05,0.0,0 STARLINK-4627,1 53711U 22107M   23131.98686434  .00003965  00000-0  26703-3 0  9991,2 53711  53.2136 204.9098 0000626  64.0607 296.0450 15.08845469 38139,6917.864,95.437,540.162,539.296,0.0
53711.0,STARLINK-4627,PAYLOAD,2023-05-12 09:13:24,15.08837973,5.97e-05,53.2138,203.1254,60.1282,299.9769,4.4043e-05,4.13e-06,0.0,0 STARLINK-4627,1 53711U 22107M   23132.38430672  .00000413  00000-0  44043-4 0  9990,2 53711  53.2138 203.1254 0000597  60.1282 299.9769 15.08837973 38191,6917.887,95.438,540.165,539.339,0.0
53711.0,STARLINK-4627,PAYLOAD,2023-05-13 10:39:33,15.08850186,3.95e-05,53.2142,198.3657,108.8827,251.2208,0.00025588,3.788e-05,0.0,0 STARLINK-4627,1 53711U 22107M   23133.44414103  .00003788  00000-0  25588-3 0  9999,2 53711  53.2142 198.3657 0000395 108.8827 251.2208 15.08850186 38357,6917.849,95.437,539.988,539.441,0.0
53711.0,STARLINK-4627,PAYLOAD,2023-05-13 21:47:15,15.08845289,5.8e-05,53.2139,196.2849,52.2496,307.8548,0.00016573,2.351e-05,0.0,0 STARLINK-4627,1 53711U 22107M   23133.90782292  .00002351  00000-0  16573-3 0  9996,2 53711  53.2139 196.2849 0000580  52.2496 307.8548 15.08845289 38424,6917.864,95.437,540.13,539.328,0.0
53711.0,STARLINK-4627,PAYLOAD,2023-05-14 10:30:21,15.08834923,7.43e-05,53.2141,193.9068,73.6745,286.4329,3.7098e-05,3.03e-06,0.0,0 STARLINK-4627,1 53711U 22107M   23134.43774945  .00000303  00000-0  37098-4 0  9992,2 53711  53.2141 193.9068 0000743  73.6745 286.4329 15.08834923 38500,6917.896,95.438,540.275,539.247,0.0
53711.0,STARLINK-4627,PAYLOAD,2023-05-14 23:13:27,15.0882345,7.67e-05,53.2144,191.5262,102.4982,257.6096,0.00046981,7.194e-05,0.0,0 STARLINK-4627,1 53711U 22107M   23134.96767734  .00007194  00000-0  46981-3 0  9993,2 53711  53.2144 191.5262 0000767 102.4982 257.6096 15.08823450 38585,6917.931,95.439,540.327,539.265,0.0
53711.0,STARLINK-4627,PAYLOAD,2023-05-15 07:10:22,15.08836832,7.79e-05,53.2148,190.0384,104.8938,255.214,4.7331e-05,4.66e-06,0.0,0 STARLINK-4627,1 53711U 22107M   23135.29886858  .00000466  00000-0  47331-4 0  9995,2 53711  53.2148 190.0384 0000779 104.8938 255.2140 15.08836832 38636,6917.89,95.438,540.294,539.216,0.0
53711.0,STARLINK-4627,PAYLOAD,2023-05-15 10:21:08,15.08839231,7.6e-05,53.2153,189.4461,82.8702,277.2376,5.0133e-05,5.1e-06,0.0,0 STARLINK-4627,1 53711U 22107M   23135.43134757  .00000510  00000-0  50133-4 0  9999,2 53711  53.2153 189.4461 0000760  82.8702 277.2376 15.08839231 39096,6917.883,95.438,540.273,539.222,0.0
53711.0,STARLINK-4627,PAYLOAD,2023-05-16 10:11:55,15.08835037,7.59e-05,53.2155,184.9868,79.931,280.1768,6.8486e-05,8.02e-06,0.0,0 STARLINK-4627,1 53711U 22107M   23136.42495298  .00000802  00000-0  68486-4 0  9993,2 53711  53.2155 184.9868 0000759  79.9310 280.1768 15.08835037 38805,6917.896,95.438,540.286,539.235,0.0
53711.0,STARLINK-4627,PAYLOAD,2023-05-16 19:44:14,15.08837126,7.42e-05,53.2151,183.2013,75.8487,284.2588,7.7366e-05,9.44e-06,0.0,0 STARLINK-4627,1 53711U 22107M   23136.82239181  .00000944  00000-0  77366-4 0  9998,2 53711  53.2151 183.2013 0000742  75.8487 284.2588 15.08837126 39309,6917.889,95.438,540.267,539.241,0.0
53711.0,STARLINK-4627,PAYLOAD,2023-05-17 10:02:42,15.08838902,7.56e-05,53.2152,180.5252,74.8703,285.2373,8.1379e-05,1.008e-05,0.0,0 STARLINK-4627,1 53711U 22107M   23137.41855143  .00001008  00000-0  81379-4 0  9997,2 53711  53.2152 180.5252 0000756  74.8703 285.2373 15.08838902 39395,6917.884,95.438,540.272,539.226,0.0
53711.0,STARLINK-4627,PAYLOAD,2023-05-17 22:45:48,15.08834988,7.61e-05,53.215,178.1457,82.266,277.8418,6.481e-05,7.44e-06,0.0,0 STARLINK-4627,1 53711U 22107M   23137.94847500  .00000744  00000-0  64810-4 0  9990,2 53711  53.2150 178.1457 0000761  82.2660 277.8418 15.08834988 39032,6917.896,95.438,540.287,539.234,0.0
53711.0,STARLINK-4627,PAYLOAD,2023-05-18 11:28:53,15.08837465,7.67e-05,53.215,175.7665,77.6769,282.4309,4.5205e-05,4.32e-06,0.0,0 STARLINK-4627,1 53711U 22107M   23138.47839509  .00000432  00000-0  45205-4 0  9990,2 53711  53.2150 175.7665 0000767  77.6769 282.4309 15.08837465 39551,6917.888,95.438,540.284,539.223,0.0
53711.0,STARLINK-4627,PAYLOAD,2023-05-18 19:25:49,15.08836292,7.73e-05,53.215,174.2793,80.365,279.7429,2.975e-05,1.86e-06,0.0,0 STARLINK-4627,1 53711U 22107M   23138.80959679  .00000186  00000-0  29750-4 0  9991,2 53711  53.2150 174.2793 0000773  80.3650 279.7429 15.08836292 39609,6917.892,95.438,540.291,539.222,0.0
